COSMOS 2251 DEB         
1 34276U 93036LW  26062.69224167  .00003253  00000+0  71472-3 0  9992
2 34276  74.0224 291.3346 0021006  54.9213   1.7321 14.57824131897727
COSMOS 2251 DEB         
1 34297U 93036MT  26062.62383923  .00000430  00000+0  15449-3 0  9990
2 34297  74.0483 135.7039 0017436 193.5031 286.6495 14.36708400892264
COSMOS 2251 DEB         
1 34301U 93036MX  26062.32252485  .00049793  00000+0  51818-2 0  9995
2 34301  74.0054   5.8931 0005318  52.8624 104.6298 14.89573569895989
COSMOS 2251 DEB         
1 34302U 93036MY  26062.71551197  .00002915  00000+0  90401-3 0  9998
2 34302  74.1812 335.3449 0078559 168.6333 218.6566 14.39792899888865
COSMOS 2251 DEB         
1 34303U 93036MZ  26062.66358060  .00007821  00000+0  15829-2 0  9998
2 34303  74.0052 134.5025 0137912 254.1719 232.5072 14.55564784891395
COSMOS 2251 DEB         
1 34304U 93036NA  26062.73147798  .00004848  00000+0  14512-2 0  9995
2 34304  74.0156 333.1027 0125879  91.9247 299.9917 14.38593955884617
COSMOS 2251 DEB         
1 34307U 93036ND  26062.77793792  .00000748  00000+0  68908-3 0  9997
2 34307  74.0537 183.0664 0392622 356.0997 154.4326 13.54469421839594
COSMOS 2251 DEB         
1 34313U 93036NK  26062.64190147  .00363871  00000+0  71317-2 0  9991
2 34313  73.9644 132.5534 0022822 296.8076  63.0800 15.45681199903026
COSMOS 2251 DEB         
1 34314U 93036NL  26062.73181572  .00001508  00000+0  71367-3 0  9996
2 34314  74.0061 163.8219 0105579 251.9705 236.5325 14.17648248878050
COSMOS 2251 DEB         
1 34316U 93036NN  26062.29182859  .00028729  00000+0  25536-2 0  9998
2 34316  74.0643 175.0331 0012123 269.6230  90.3566 14.95941356904122
COSMOS 2251 DEB         
1 34317U 93036NP  26062.61045447  .00000884  00000+0  75970-3 0  9996
2 34317  73.9214 262.6004 0336623 236.7927 183.8817 13.65245596847231
COSMOS 2251 DEB         
1 34321U 93036NT  26062.28601303  .00002533  00000+0  65366-3 0  9994
2 34321  74.0318   4.9772 0013756 120.4559 356.0568 14.50463082896543
COSMOS 2251 DEB         
1 34323U 93036NV  26062.77786451  .00018756  00000+0  25809-2 0  9999
2 34323  73.9541 323.7347 0055211 347.1833  68.8454 14.77186756896356
COSMOS 2251 DEB         
1 34325U 93036NX  26062.43562421  .00003356  00000+0  17925-2 0  9993
2 34325  73.8704  50.5654 0188711  52.0764 100.7504 14.04914653866489
COSMOS 2251 DEB         
1 34327U 93036NZ  26062.84425656  .00017633  00000+0  17361-2 0  9995
2 34327  73.9959   9.0667 0032426 171.4131 220.0813 14.91654605907166
COSMOS 2251 DEB         
1 34340U 93036PN  26062.36116126  .00002371  00000+0  16896-2 0  9991
2 34340  74.0782 173.2853 0288876 263.0576 153.3282 13.79868888853805
