[{"OBJECT_NAME":"COSMOS 2251 DEB","OBJECT_ID":"1993-036LW","EPOCH":"2026-03-03T16:36:49.680288","MEAN_MOTION":14.57824131,"ECCENTRICITY":0.0021006,"INCLINATION":74.0224,"RA_OF_ASC_NODE":291.3346,"ARG_OF_PERICENTER":54.9213,"MEAN_ANOMALY":1.7321,"EPHEMERIS_TYPE":0,"CLASSIFICATION_TYPE":"U","NORAD_CAT_ID":34276,"ELEMENT_SET_NO":999,"REV_AT_EPOCH":89772,"BSTAR":0.00071472,"MEAN_MOTION_DOT":3.253e-5,"MEAN_MOTION_DDOT":0},{"OBJECT_NAME":"COSMOS 2251 DEB","OBJECT_ID":"1993-036MT","EPOCH":"2026-03-03T14:58:19.709472","MEAN_MOTION":14.367084,"ECCENTRICITY":0.0017436,"INCLINATION":74.0483,"RA_OF_ASC_NODE":135.7039,"ARG_OF_PERICENTER":193.5031,"MEAN_ANOMALY":286.6495,"EPHEMERIS_TYPE":0,"CLASSIFICATION_TYPE":"U","NORAD_CAT_ID":34297,"ELEMENT_SET_NO":999,"REV_AT_EPOCH":89226,"BSTAR":0.00015449,"MEAN_MOTION_DOT":4.3e-6,"MEAN_MOTION_DDOT":0},{"OBJECT_NAME":"COSMOS 2251 DEB","OBJECT_ID":"1993-036MX","EPOCH":"2026-03-03T07:44:26.147040","MEAN_MOTION":14.89573569,"ECCENTRICITY":0.00053189,"INCLINATION":74.0054,"RA_OF_ASC_NODE":5.8931,"ARG_OF_PERICENTER":52.8624,"MEAN_ANOMALY":104.6298,"EPHEMERIS_TYPE":0,"CLASSIFICATION_TYPE":"U","NORAD_CAT_ID":34301,"ELEMENT_SET_NO":999,"REV_AT_EPOCH":89598,"BSTAR":0.0051817509,"MEAN_MOTION_DOT":0.00049793,"MEAN_MOTION_DDOT":0},{"OBJECT_NAME":"COSMOS 2251 DEB","OBJECT_ID":"1993-036MY","EPOCH":"2026-03-03T17:10:20.234208","MEAN_MOTION":14.39792899,"ECCENTRICITY":0.0078559,"INCLINATION":74.1812,"RA_OF_ASC_NODE":335.3449,"ARG_OF_PERICENTER":168.6333,"MEAN_ANOMALY":218.6566,"EPHEMERIS_TYPE":0,"CLASSIFICATION_TYPE":"U","NORAD_CAT_ID":34302,"ELEMENT_SET_NO":999,"REV_AT_EPOCH":88886,"BSTAR":0.00090401,"MEAN_MOTION_DOT":2.915e-5,"MEAN_MOTION_DDOT":0},{"OBJECT_NAME":"COSMOS 2251 DEB","OBJECT_ID":"1993-036MZ","EPOCH":"2026-03-03T15:55:33.363840","MEAN_MOTION":14.55564784,"ECCENTRICITY":0.0137912,"INCLINATION":74.0052,"RA_OF_ASC_NODE":134.5025,"ARG_OF_PERICENTER":254.1719,"MEAN_ANOMALY":232.5072,"EPHEMERIS_TYPE":0,"CLASSIFICATION_TYPE":"U","NORAD_CAT_ID":34303,"ELEMENT_SET_NO":999,"REV_AT_EPOCH":89139,"BSTAR":0.0015829,"MEAN_MOTION_DOT":7.821e-5,"MEAN_MOTION_DDOT":0},{"OBJECT_NAME":"COSMOS 2251 DEB","OBJECT_ID":"1993-036NA","EPOCH":"2026-03-03T17:33:19.697472","MEAN_MOTION":14.38593955,"ECCENTRICITY":0.0125879,"INCLINATION":74.0156,"RA_OF_ASC_NODE":333.1027,"ARG_OF_PERICENTER":91.9247,"MEAN_ANOMALY":299.9917,"EPHEMERIS_TYPE":0,"CLASSIFICATION_TYPE":"U","NORAD_CAT_ID":34304,"ELEMENT_SET_NO":999,"REV_AT_EPOCH":88461,"BSTAR":0.0014512,"MEAN_MOTION_DOT":4.848e-5,"MEAN_MOTION_DDOT":0},{"OBJECT_NAME":"COSMOS 2251 DEB","OBJECT_ID":"1993-036ND","EPOCH":"2026-03-03T18:40:13.836288","MEAN_MOTION":13.54469421,"ECCENTRICITY":0.0392622,"INCLINATION":74.0537,"RA_OF_ASC_NODE":183.0664,"ARG_OF_PERICENTER":356.0997,"MEAN_ANOMALY":154.4326,"EPHEMERIS_TYPE":0,"CLASSIFICATION_TYPE":"U","NORAD_CAT_ID":34307,"ELEMENT_SET_NO":999,"REV_AT_EPOCH":83959,"BSTAR":0.00068908,"MEAN_MOTION_DOT":7.48e-6,"MEAN_MOTION_DDOT":0},{"OBJECT_NAME":"COSMOS 2251 DEB","OBJECT_ID":"1993-036NK","EPOCH":"2026-03-03T15:24:20.287008","MEAN_MOTION":15.45681199,"ECCENTRICITY":0.0022822,"INCLINATION":73.9644,"RA_OF_ASC_NODE":132.5534,"ARG_OF_PERICENTER":296.8076,"MEAN_ANOMALY":63.08,"EPHEMERIS_TYPE":0,"CLASSIFICATION_TYPE":"U","NORAD_CAT_ID":34313,"ELEMENT_SET_NO":999,"REV_AT_EPOCH":90302,"BSTAR":0.0071317,"MEAN_MOTION_DOT":0.00363871,"MEAN_MOTION_DDOT":0},{"OBJECT_NAME":"COSMOS 2251 DEB","OBJECT_ID":"1993-036NL","EPOCH":"2026-03-03T17:33:48.878208","MEAN_MOTION":14.17648248,"ECCENTRICITY":0.0105579,"INCLINATION":74.0061,"RA_OF_ASC_NODE":163.8219,"ARG_OF_PERICENTER":251.9705,"MEAN_ANOMALY":236.5325,"EPHEMERIS_TYPE":0,"CLASSIFICATION_TYPE":"U","NORAD_CAT_ID":34314,"ELEMENT_SET_NO":999,"REV_AT_EPOCH":87805,"BSTAR":0.00071367,"MEAN_MOTION_DOT":1.508e-5,"MEAN_MOTION_DDOT":0},{"OBJECT_NAME":"COSMOS 2251 DEB","OBJECT_ID":"1993-036NN","EPOCH":"2026-03-03T07:00:13.990176","MEAN_MOTION":14.95941356,"ECCENTRICITY":0.00121236,"INCLINATION":74.0643,"RA_OF_ASC_NODE":175.0331,"ARG_OF_PERICENTER":269.623,"MEAN_ANOMALY":90.3566,"EPHEMERIS_TYPE":0,"CLASSIFICATION_TYPE":"U","NORAD_CAT_ID":34316,"ELEMENT_SET_NO":999,"REV_AT_EPOCH":90412,"BSTAR":0.0025535907,"MEAN_MOTION_DOT":0.00028729,"MEAN_MOTION_DDOT":0},{"OBJECT_NAME":"COSMOS 2251 DEB","OBJECT_ID":"1993-036NP","EPOCH":"2026-03-03T14:39:03.266208","MEAN_MOTION":13.65245596,"ECCENTRICITY":0.0336623,"INCLINATION":73.9214,"RA_OF_ASC_NODE":262.6004,"ARG_OF_PERICENTER":236.7927,"MEAN_ANOMALY":183.8817,"EPHEMERIS_TYPE":0,"CLASSIFICATION_TYPE":"U","NORAD_CAT_ID":34317,"ELEMENT_SET_NO":999,"REV_AT_EPOCH":84723,"BSTAR":0.0007597,"MEAN_MOTION_DOT":8.84e-6,"MEAN_MOTION_DDOT":0},{"OBJECT_NAME":"COSMOS 2251 DEB","OBJECT_ID":"1993-036NT","EPOCH":"2026-03-03T06:51:51.525792","MEAN_MOTION":14.50463082,"ECCENTRICITY":0.00137565,"INCLINATION":74.0318,"RA_OF_ASC_NODE":4.9772,"ARG_OF_PERICENTER":120.4559,"MEAN_ANOMALY":356.0568,"EPHEMERIS_TYPE":0,"CLASSIFICATION_TYPE":"U","NORAD_CAT_ID":34321,"ELEMENT_SET_NO":999,"REV_AT_EPOCH":89654,"BSTAR":0.00065366139,"MEAN_MOTION_DOT":2.533e-5,"MEAN_MOTION_DDOT":0},{"OBJECT_NAME":"COSMOS 2251 DEB","OBJECT_ID":"1993-036NV","EPOCH":"2026-03-03T18:40:07.493664","MEAN_MOTION":14.77186756,"ECCENTRICITY":0.0055211,"INCLINATION":73.9541,"RA_OF_ASC_NODE":323.7347,"ARG_OF_PERICENTER":347.1833,"MEAN_ANOMALY":68.8454,"EPHEMERIS_TYPE":0,"CLASSIFICATION_TYPE":"U","NORAD_CAT_ID":34323,"ELEMENT_SET_NO":999,"REV_AT_EPOCH":89635,"BSTAR":0.0025809,"MEAN_MOTION_DOT":0.00018756,"MEAN_MOTION_DDOT":0},{"OBJECT_NAME":"COSMOS 2251 DEB","OBJECT_ID":"1993-036NX","EPOCH":"2026-03-03T10:27:17.931744","MEAN_MOTION":14.04914653,"ECCENTRICITY":0.01887119,"INCLINATION":73.8704,"RA_OF_ASC_NODE":50.5654,"ARG_OF_PERICENTER":52.0764,"MEAN_ANOMALY":100.7504,"EPHEMERIS_TYPE":0,"CLASSIFICATION_TYPE":"U","NORAD_CAT_ID":34325,"ELEMENT_SET_NO":999,"REV_AT_EPOCH":86648,"BSTAR":0.0017925265,"MEAN_MOTION_DOT":3.356e-5,"MEAN_MOTION_DDOT":0},{"OBJECT_NAME":"COSMOS 2251 DEB","OBJECT_ID":"1993-036NZ","EPOCH":"2026-03-03T20:15:43.766784","MEAN_MOTION":14.91654605,"ECCENTRICITY":0.0032426,"INCLINATION":73.9959,"RA_OF_ASC_NODE":9.0667,"ARG_OF_PERICENTER":171.4131,"MEAN_ANOMALY":220.0813,"EPHEMERIS_TYPE":0,"CLASSIFICATION_TYPE":"U","NORAD_CAT_ID":34327,"ELEMENT_SET_NO":999,"REV_AT_EPOCH":90716,"BSTAR":0.0017361,"MEAN_MOTION_DOT":0.00017633,"MEAN_MOTION_DDOT":0},{"OBJECT_NAME":"COSMOS 2251 DEB","OBJECT_ID":"1993-036PN","EPOCH":"2026-03-03T08:40:04.332864","MEAN_MOTION":13.79868888,"ECCENTRICITY":0.02888761,"INCLINATION":74.0782,"RA_OF_ASC_NODE":173.2853,"ARG_OF_PERICENTER":263.0576,"MEAN_ANOMALY":153.3282,"EPHEMERIS_TYPE":0,"CLASSIFICATION_TYPE":"U","NORAD_CAT_ID":34340,"ELEMENT_SET_NO":999,"REV_AT_EPOCH":85380,"BSTAR":0.0016895924,"MEAN_MOTION_DOT":2.371e-5,"MEAN_MOTION_DDOT":0}]
